#aV2015  7 19  3 33   20.000000      53   BCE WGS84      ARL
## 1854    12800.000000   900.00000000 57222 0.1481481481481
+   29     1  2  3  4  5  7  9 11 12 13 14 15 16 17 18 19 20
+         21 22 23 24 25 26 27 28 29 30 31 32  0  0  0  0  0
+          0  0  0  0  0  0  0  0  0  0  0  0  0  0  0  0  0
+          0  0  0  0  0  0  0  0  0  0  0  0  0  0  0  0  0
+          0  0  0  0  0  0  0  0  0  0  0  0  0  0  0  0  0
++         0  0  0  0  0  0  0  0  0  0  0  0  0  0  0  0  0
++         0  0  0  0  0  0  0  0  0  0  0  0  0  0  0  0  0
++         0  0  0  0  0  0  0  0  0  0  0  0  0  0  0  0  0
++         0  0  0  0  0  0  0  0  0  0  0  0  0  0  0  0  0
++         0  0  0  0  0  0  0  0  0  0  0  0  0  0  0  0  0
%c cc cc ccc ccc cccc cccc cccc cccc ccccc ccccc ccccc ccccc
%c cc cc ccc ccc cccc cccc cccc cccc ccccc ccccc ccccc ccccc
%f  0.0000000  0.000000000  0.00000000000  0.000000000000000
%f  0.0000000  0.000000000  0.00000000000  0.000000000000000
%i    0    0    0    0      0      0      0      0         0
%i    0    0    0    0      0      0      0      0         0
/* CCCCCCCCCCCCCCCCCCCCCCCCCCCCCCCCCCCCCCCCCCCCCCCCCCCCCCCCC
/* CCCCCCCCCCCCCCCCCCCCCCCCCCCCCCCCCCCCCCCCCCCCCCCCCCCCCCCCC
/* CCCCCCCCCCCCCCCCCCCCCCCCCCCCCCCCCCCCCCCCCCCCCCCCCCCCCCCCC
/* CCCCCCCCCCCCCCCCCCCCCCCCCCCCCCCCCCCCCCCCCCCCCCCCCCCCCCCCC
*  2015  7 19  9 33 20.00000000
P  1 -20977.093939 -10623.891864  12483.602550     -2.649591
V  1    -89.074614   -133.018257   -259.699118      0.000000
P  3 -15492.609704  -1289.734880  21552.251217      8.643859
V  3     81.607360   -260.909416     42.774233      0.000000
P  4 -19826.685717 -17426.621088   3705.307713     -2.572058
V  4    -11.008939    -59.163078   -306.619326     -0.000000
P 11 -24367.748683  -9960.147558   3425.967260   -592.328513
V 11    -21.630817    -65.850898   -297.169024     -0.000000
P 12  13641.822903   5006.440311  22125.374487    311.242264
V 12    -99.666397    264.554026      3.644832      0.000000
P 14  13896.610637 -14213.808191  17785.682674     47.886919
V 14    221.560193    -13.059027   -187.701790     -0.000000
P 15  21445.950529   5796.543565 -14880.703627   -261.294939
V 15   -174.647389     70.760887   -222.286600     -0.000000
P 16  -2884.931550 -20898.460050 -15980.123480   -106.941938
V 16     89.591966   -182.037715    226.580950      0.000000
P 18  15112.792546 -17364.175518 -12487.591376    418.443444
V 18    -15.209972    171.592028   -249.993753      0.000000
P 19 -19693.780228  -8811.165266 -16001.102598   -516.262779
V 19    194.546152    -35.841958   -218.016042     -0.000000
P 20  15261.230406   5007.010298 -21296.980124    339.663253
V 20    -66.555262    260.112365     14.440704      0.000000
P 21  14793.304559  -6302.586010 -20486.454373   -464.966652
V 21    183.363671    207.515898     62.937276     -0.000000
P 22   8946.607409 -24827.734812  -1741.244226    372.571740
V 22     32.587359     36.232856   -308.882797      0.000000
P 24  21265.626844  12507.889724   9994.713354     -1.579152
V 24     67.223758    110.953414   -279.396076     -0.000000
P 25  16265.898068  -9413.069147  18598.941825    -14.808669
V 25    -61.744213    230.670635    171.381702     -0.000000
P 26   3461.016623 -25510.090364  -6533.387692    -11.013391
V 26     51.320015    -70.477822    302.806136     -0.000000
P 27  -8713.483408 -13193.570473 -21383.199739      5.412510
V 27    263.539585    -61.255647    -68.501523      0.000000
P 31  -2761.648927 -20631.198722  16424.571862    309.316580
V 31    146.457611    147.568867    214.898633     -0.000000
P 32  -8600.487287 -15929.314543  19577.164155    -95.959947
V 32    106.351340   -224.365253   -130.270144      0.000000
*  2015  7 19  9 48 20.00000000
P  1 -21716.218206 -11700.808966  10046.255919     -2.649079
V  1    -74.425765   -106.345674   -281.135065      0.000000
P  3 -14815.369338  -3670.304778  21750.978902      8.647645
V  3     68.588261   -267.240203      1.321783      0.000000
P  4 -19829.449668 -17845.013891    921.924021     -2.574821
V  4     10.903840    -34.200472   -311.001968     -0.000000
P 11 -24440.403753 -10479.944956    729.490868   -592.330662
V 11      5.789778    -50.129915   -301.150497     -0.000000
P 12  12814.577968   7405.328307  21965.914865    311.245231
V 12    -83.888859    267.604119    -39.015651      0.000000
P 14  15788.891153 -14367.105444  15949.877315     47.884463
V 14    198.305632    -20.453965   -219.678965     -0.000000
P 15  19787.272306   6502.614131 -16750.186893   -261.296781
V 15   -193.210101     86.366256   -192.547687     -0.000000
P 16  -2164.899729 -22445.316469 -13807.668891   -106.938254
V 16     70.694407   -160.889568    255.487484      0.000000
P 18  14979.660287 -15695.690883 -14618.682526    418.446206
V 18    -13.771689    198.719202   -222.837157      0.000000
P 19 -17848.773108  -9197.715032 -17824.685495   -516.263597
V 19    214.710148    -50.399744   -186.646225     -0.000000
P 20  14720.198608   7348.115313 -20986.446432    339.666118
V 20    -53.564477    259.279281     54.473444      0.000000
P 21  16456.282642  -4504.146053 -19735.084665   -464.969517
V 21    185.425505    191.603408    103.741004     -0.000000
P 22   9208.239866 -24356.878699  -4498.055000    372.575219
V 22     26.164694     68.435867   -302.814268      0.000000
P 23 -24458.060821  -1429.324113  10951.803193   -121.911793
V 23    124.148231    -59.187431    269.149228     -0.000000
P 24  21793.596149  13388.068965   7401.801223     -1.579766
V 24     49.413959     84.805998   -295.958869     -0.000000
P 25  15744.764527  -7244.682170  19974.759264    -14.812762
V 25    -53.499906    250.465802    133.907006     -0.000000
P 26   3864.074550 -26005.990039  -3759.610268    -11.015443
V 26     38.812784    -39.326017    312.675672     -0.000000
P 27  -6329.939342 -13815.047588 -21814.631568      5.415068
V 27    265.227774    -76.733796    -27.228089      0.000000
P 31  -1339.481317 -19263.010421  18211.241426    309.315454
V 31    169.396153    155.614410    181.574252     -0.000000
P 32  -7721.218485 -17902.704231  18241.772122    -95.950841
V 32     89.056408   -213.332337   -166.032589      0.000000
*  2015  7 19 10  3 20.00000000
P  1 -22303.698749 -12540.954851   7437.446253     -2.648469
V  1    -55.432788    -80.554505   -297.747644      0.000000
P  3 -14262.094625  -6084.390180  21575.944532      8.651413
V  3     54.204170   -268.319858    -40.163815      0.000000
P  4 -19621.859948 -18050.688445  -1877.127138     -2.577834
V  4     35.626352    -12.005670   -310.103895     -0.000000
P 11 -24258.962433 -10872.276274  -1979.531530   -592.332811
V 11     34.703017    -37.591888   -299.964795     -0.000000
P 12  12135.334718   9806.472137  21425.360570    311.248198
V 12    -66.936483    265.032621    -80.919175      0.000000
P 14  17456.215571 -14571.047602  13842.294531     47.882095
V 14    171.696142    -24.228402   -248.003531     -0.000000
P 16  -1605.829309 -23780.803671 -11394.390846   -106.934236
V 16     53.958435   -135.164045    280.009792      0.000000
P 18  14875.418221 -13796.200990 -16486.550841    418.448969
V 18     -8.858433    222.784871   -191.592277      0.000000
P 19 -15842.818870  -9723.515412 -19351.311455   -516.264416
V 19    230.241625    -66.653115   -152.116015     -0.000000
P 22   9429.276501 -23596.346874  -7176.236987    372.578341
V 22     23.573671    100.444437   -291.433091      0.000000
P 23 -23229.370079  -2030.339395  13276.137129   -121.914232
V 23    148.261510    -74.740506    246.626316     -0.000000
P 25  15311.989471  -4918.320614  21002.395449    -14.816709
V 25    -42.229702    265.674541     94.125534     -0.000000
P 26   4171.009432 -26212.217289   -921.116807    -11.020825
V 26     30.023521     -6.260093    317.163870     -0.000000
P 31    283.174565 -17845.252425  19683.919415    309.314485
V 31    190.856469    158.607799    145.229400     -0.000000
P 32  -6995.625155 -19754.976589  16597.344260    -95.941638
V 32     72.343865   -197.493668   -198.850285      0.000000
*  2015  7 19 10 18 20.00000000
P  1 -22702.168619 -13156.247369   4701.858016     -2.647958
V  1    -32.507941    -56.518632   -309.268614      0.000000
P  3 -13841.109436  -8483.973314  21030.057805      8.655199
V  3     39.340148   -264.010153    -80.970473      0.000000
P  4 -19181.709874 -18071.342169  -4644.502151     -2.580597
V  4     62.457361      6.824849   -303.980949     -0.000000
P 11 -23813.542816 -11167.296633  -4654.901772   -592.335000
V 11     64.313209    -28.546492   -293.695169     -0.000000
P 12  11610.332525  12158.961858  20513.813999    311.251165
V 12    -49.774295    256.802023   -121.338723      0.000000
P 14  18872.004133 -14790.941154  11498.116875     47.879639
V 14    142.552676    -23.940194   -272.172102     -0.000000
P 16  -1184.702829 -24866.621778  -8781.866612   -106.930553
V 16     40.156193   -105.533179    299.690026      0.000000
P 18  14829.217994 -11696.932751 -18056.914177    418.451732
V 18     -0.967059    242.993078   -156.831113      0.000000
P 19 -13719.336421 -10400.066672 -20554.968122   -516.265234
V 19    240.784090    -83.755329   -114.972723     -0.000000
P 22   9644.104388 -22552.145886  -9728.699614    372.581820
V 22     24.763845    131.314871   -274.917197      0.000000
P 23 -21801.211645  -2780.770546  15378.850089   -121.916279
V 23    168.388136    -92.270937    219.970477     -0.000000
P 25  14991.369329  -2477.824962  21664.239709    -14.820802
V 25    -28.715263    275.755794     52.742080     -0.000000
P 26   4416.778780 -26115.713500   1933.233423    -11.026043
V 26     25.256028     27.783229    316.192407     -0.000000
P 31   2088.890840 -16422.485983  20818.288323    309.313360
V 31    209.931712    156.781841    106.507034     -0.000000
P 32  -6414.665394 -21444.312204  14672.775091    -95.932532
V 32     57.048031   -177.194614   -228.201337      0.000000
EOF
